[{"OBJECT_NAME":"YAOGAN-43 01G","OBJECT_ID":"2024-148G","EPOCH":"2026-03-09T10:38:37.087584","MEAN_MOTION":15.28332833,"ECCENTRICITY":0.00073829,"INCLINATION":35.0006,"RA_OF_ASC_NODE":62.0013,"ARG_OF_PERICENTER":306.3543,"MEAN_ANOMALY":53.6492,"EPHEMERIS_TYPE":0,"CLASSIFICATION_TYPE":"U","NORAD_CAT_ID":60464,"ELEMENT_SET_NO":999,"REV_AT_EPOCH":8700,"BSTAR":0.00035872736,"MEAN_MOTION_DOT":0.00010133,"MEAN_MOTION_DDOT":0},{"OBJECT_NAME":"STARLINK-34076","OBJECT_ID":"2025-095AB","EPOCH":"2026-03-09T07:55:06.215520","MEAN_MOTION":15.27588334,"ECCENTRICITY":6.723e-5,"INCLINATION":42.9964,"RA_OF_ASC_NODE":178.168,"ARG_OF_PERICENTER":245.5679,"MEAN_ANOMALY":114.5103,"EPHEMERIS_TYPE":0,"CLASSIFICATION_TYPE":"U","NORAD_CAT_ID":63915,"ELEMENT_SET_NO":999,"REV_AT_EPOCH":4772,"BSTAR":0.0015376144,"MEAN_MOTION_DOT":0.00042303,"MEAN_MOTION_DDOT":0}]
